OBJECT_NAME,OBJECT_ID,EPOCH,MEAN_MOTION,ECCENTRICITY,INCLINATION,RA_OF_ASC_NODE,ARG_OF_PERICENTER,MEAN_ANOMALY,EPHEMERIS_TYPE,CLASSIFICATION_TYPE,NORAD_CAT_ID,ELEMENT_SET_NO,REV_AT_EPOCH,BSTAR,MEAN_MOTION_DOT,MEAN_MOTION_DDOT
KUIPER-00493,2026-140E,2026-07-07T19:29:38.000832,15.36556300,.0007946,51.8808,299.2011,9.2157,350.8974,0,U,69596,999,440,.44437E-3,.1576E-3,0
KUIPER-00496,2026-140F,2026-07-07T19:48:46.721664,15.34401351,.0010806,51.8807,299.2806,13.9389,346.1893,0,U,69597,999,440,-.58819E-4,-.2377E-4,0
KUIPER-00513,2026-140G,2026-07-07T19:02:13.017408,15.38031657,.0007833,51.8810,299.0795,309.5769,50.4525,0,U,69598,999,440,.51924E-3,.19408E-3,0
KUIPER-00516,2026-140H,2026-07-07T19:10:16.716576,15.37469418,.0006763,51.8788,299.1092,327.1372,32.9194,0,U,69599,999,440,.38437E-3,.13987E-3,0
KUIPER-00517,2026-140J,2026-07-07T15:37:53.092416,15.38705874,.0010749,51.8768,299.6234,262.3420,97.6347,0,U,69600,999,438,.77831E-3,.30016E-3,0
KUIPER-00520,2026-140K,2026-07-07T19:11:54.042720,15.37524358,.0006507,51.8821,299.1255,328.3863,31.6732,0,U,69601,999,440,.41473E-3,.15152E-3,0
KUIPER-00522,2026-140L,2026-07-07T10:51:25.939584,15.38509840,.00132746,51.8789,300.5443,236.5674,123.4044,0,U,69602,999,435,.33628295E-3,.12639E-3,0
KUIPER-00528,2026-140M,2026-07-07T19:14:43.760832,15.37375718,.0005889,51.8791,299.1302,333.4069,26.6615,0,U,69603,999,440,.50113E-3,.18308E-3,0
KUIPER-00532,2026-140N,2026-07-07T17:51:31.893696,15.36648603,.0005903,51.8789,299.4908,4.7270,355.3771,0,U,69604,999,439,.54736E-3,.19565E-3,0
KUIPER-00533,2026-140P,2026-07-07T15:50:11.291424,15.38136241,.0007756,51.8786,299.6805,298.5010,61.5196,0,U,69605,999,438,.33333E-3,.12348E-3,0
KUIPER-00534,2026-140Q,2026-07-07T15:25:11.443584,15.38647665,.0013598,51.8817,299.5735,238.1693,121.7971,0,U,69606,999,438,.32496E-3,.12257E-3,0
KUIPER-00537,2026-140R,2026-07-08T00:00:02.000160,15.34369441,.0010284,51.8811,298.4080,32.3443,232.0060,0,U,69607,999,410,-.76499E-3,-.26186E-3,0
KUIPER-00538,2026-140S,2026-07-07T19:08:54.717792,15.37607401,.0006493,51.8810,299.1086,314.0726,45.9726,0,U,69608,999,440,.40244E-3,.14731E-3,0
KUIPER-00540,2026-140T,2026-07-07T17:47:08.589696,15.36845449,.0006649,51.8811,299.4785,355.6578,4.4349,0,U,69609,999,439,.47593E-3,.17067E-3,0
KUIPER-00541,2026-140U,2026-07-07T18:57:46.759392,15.38292955,.0008368,51.8825,299.0629,296.3987,63.6141,0,U,69610,999,440,.5787E-3,.21874E-3,0
KUIPER-00542,2026-140V,2026-07-07T15:48:14.933088,15.38266363,.0007922,51.8785,299.6720,275.3242,84.6841,0,U,69611,999,438,.39797E-3,.14889E-3,0
KUIPER-00543,2026-140W,2026-07-07T11:38:13.649280,15.36715957,.00075126,51.8788,300.7497,11.3158,348.7996,0,U,69612,999,435,.46478378E-3,.16589E-3,0
KUIPER-00544,2026-140X,2026-07-07T15:53:42.383904,15.38065455,.0006525,51.8778,299.6956,290.5853,69.4434,0,U,69613,999,438,.90711E-3,.34299E-3,0
KUIPER-00546,2026-140Y,2026-07-07T15:26:48.016320,15.38796022,.0014616,51.8788,299.5768,235.8456,124.1146,0,U,69614,999,438,.3377E-3,.12823E-3,0
KUIPER-00547,2026-140Z,2026-07-07T15:43:26.293152,15.37756625,.0010943,51.8821,299.6577,260.1488,99.8264,0,U,69615,999,438,.40392E-3,.14877E-3,0
KUIPER-00549,2026-140AA,2026-07-07T11:28:09.112800,15.37279545,.00071889,51.8783,300.7061,349.0865,10.9965,0,U,69616,999,435,.43584365E-3,.15819E-3,0
KUIPER-00550,2026-140AB,2026-07-08T00:00:02.000160,15.33267727,.0007438,51.8802,298.4857,27.6991,194.9794,0,U,69617,999,367,-.91556E-3,-.30157E-3,0
KUIPER-00551,2026-140AC,2026-07-07T15:34:49.948608,15.38129248,.0011998,51.8800,299.6143,249.1922,110.7781,0,U,69618,999,438,.65858E-3,.24853E-3,0
KUIPER-00554,2026-140AD,2026-07-07T15:41:11.332032,15.37880263,.0011339,51.8782,299.6399,260.2674,99.7032,0,U,69619,999,438,.42392E-3,.15702E-3,0
KUIPER-00555,2026-140AE,2026-07-07T15:37:28.157376,15.37995041,.0011483,51.8818,299.6301,251.7811,108.1926,0,U,69620,999,438,.30934E-3,.11387E-3,0
KUIPER-00556,2026-140AF,2026-07-07T18:45:18.228672,15.38199102,.001219,51.8807,299.0010,239.9309,120.0470,0,U,69621,999,440,.41832E-3,.15658E-3,0
KUIPER-00557,2026-140AG,2026-07-07T15:46:45.979104,15.37429198,.0009898,51.8805,299.6703,268.8839,91.1014,0,U,69622,999,438,.40114E-3,.14608E-3,0
KUIPER-00560,2026-140AH,2026-07-07T20:21:34.951680,15.38811816,.0008906,51.8777,298.6961,259.4509,100.5475,0,U,69623,999,441,-.36945E-3,-.148E-3,0
KUIPER-00561,2026-140AJ,2026-07-07T15:44:13.313760,15.38583091,.000801,51.8824,299.6620,277.0022,83.0054,0,U,69624,999,438,.37026E-3,.13969E-3,0
KUIPER-00564,2026-140AK,2026-07-08T02:00:03.000384,15.37175165,.0009411,51.8812,297.5624,270.7489,311.4819,0,U,69625,999,369,.55469E-3,.20195E-3,0
