KUIPER-00493            
1 69596U 26140E   26188.81224538  .00015760  00000+0  44437-3 0  9999
2 69596  51.8808 299.2011 0007946   9.2157 350.8974 15.36556300  4409
KUIPER-00496            
1 69597U 26140F   26188.82554076 -.00002377  00000+0 -58819-4 0  9996
2 69597  51.8807 299.2806 0010806  13.9389 346.1893 15.34401351  4400
KUIPER-00513            
1 69598U 26140G   26188.79320622  .00019408  00000+0  51924-3 0  9991
2 69598  51.8810 299.0795 0007833 309.5769  50.4525 15.38031657  4401
KUIPER-00516            
1 69599U 26140H   26188.79880459  .00013987  00000+0  38437-3 0  9991
2 69599  51.8788 299.1092 0006763 327.1372  32.9194 15.37469418  4400
KUIPER-00517            
1 69600U 26140J   26188.65130894  .00030016  00000+0  77831-3 0  9993
2 69600  51.8768 299.6234 0010749 262.3420  97.6347 15.38705874  4382
KUIPER-00520            
1 69601U 26140K   26188.79993105  .00015152  00000+0  41473-3 0  9998
2 69601  51.8821 299.1255 0006507 328.3863  31.6732 15.37524358  4406
KUIPER-00522            
1 69602U 26140L   26188.45238356  .00012639  00000+0  33628-3 0  9992
2 69602  51.8789 300.5443 0013274 236.5674 123.4044 15.38509840  4355
KUIPER-00528            
1 69603U 26140M   26188.80189538  .00018308  00000+0  50113-3 0  9996
2 69603  51.8791 299.1302 0005889 333.4069  26.6615 15.37375718  4402
KUIPER-00532            
1 69604U 26140N   26188.74411914  .00019565  00000+0  54736-3 0  9997
2 69604  51.8789 299.4908 0005903   4.7270 355.3771 15.36648603  4392
KUIPER-00533            
1 69605U 26140P   26188.65985291  .00012348  00000+0  33333-3 0  9994
2 69605  51.8786 299.6805 0007756 298.5010  61.5196 15.38136241  4389
KUIPER-00534            
1 69606U 26140Q   26188.64249356  .00012257  00000+0  32496-3 0  9997
2 69606  51.8817 299.5735 0013598 238.1693 121.7971 15.38647665  4381
KUIPER-00537            
1 69607U 26140R   26189.00002315 -.00026186  00000+0 -76499-3 0  9990
2 69607  51.8811 298.4080 0010284  32.3443 232.0060 15.34369441  4107
KUIPER-00538            
1 69608U 26140S   26188.79785553  .00014731  00000+0  40244-3 0  9998
2 69608  51.8810 299.1086 0006493 314.0726  45.9726 15.37607401  4409
KUIPER-00540            
1 69609U 26140T   26188.74107164  .00017067  00000+0  47593-3 0  9999
2 69609  51.8811 299.4785 0006649 355.6578   4.4349 15.36845449  4393
KUIPER-00541            
1 69610U 26140U   26188.79012453  .00021874  00000+0  57870-3 0  9992
2 69610  51.8825 299.0629 0008368 296.3987  63.6141 15.38292955  4407
KUIPER-00542            
1 69611U 26140V   26188.65850617  .00014889  00000+0  39797-3 0  9996
2 69611  51.8785 299.6720 0007922 275.3242  84.6841 15.38266363  4388
KUIPER-00543            
1 69612U 26140W   26188.48488020  .00016589  00000+0  46478-3 0  9996
2 69612  51.8788 300.7497 0007512  11.3158 348.7996 15.36715957  4354
KUIPER-00544            
1 69613U 26140X   26188.66229611  .00034299  00000+0  90711-3 0  9993
2 69613  51.8778 299.6956 0006525 290.5853  69.4434 15.38065455  4386
KUIPER-00546            
1 69614U 26140Y   26188.64361130  .00012823  00000+0  33770-3 0  9996
2 69614  51.8788 299.5768 0014616 235.8456 124.1146 15.38796022  4389
KUIPER-00547            
1 69615U 26140Z   26188.65516543  .00014877  00000+0  40392-3 0  9997
2 69615  51.8821 299.6577 0010943 260.1488  99.8264 15.37756625  4385
KUIPER-00549            
1 69616U 26140AA  26188.47788325  .00015819  00000+0  43584-3 0  9990
2 69616  51.8783 300.7061 0007188 349.0865  10.9965 15.37279545  4358
KUIPER-00550            
1 69617U 26140AB  26189.00002315 -.00030157  00000+0 -91556-3 0  9995
2 69617  51.8802 298.4857 0007438  27.6991 194.9794 15.33267727  3676
KUIPER-00551            
1 69618U 26140AC  26188.64918922  .00024853  00000+0  65858-3 0  9995
2 69618  51.8800 299.6143 0011998 249.1922 110.7781 15.38129248  4388
KUIPER-00554            
1 69619U 26140AD  26188.65360338  .00015702  00000+0  42392-3 0  9990
2 69619  51.8782 299.6399 0011339 260.2674  99.7032 15.37880263  4383
KUIPER-00555            
1 69620U 26140AE  26188.65102034  .00011387  00000+0  30934-3 0  9993
2 69620  51.8818 299.6301 0011483 251.7811 108.1926 15.37995041  4384
KUIPER-00556            
1 69621U 26140AF  26188.78146098  .00015658  00000+0  41832-3 0  9990
2 69621  51.8807 299.0010 0012190 239.9309 120.0470 15.38199102  4405
KUIPER-00557            
1 69622U 26140AG  26188.65747661  .00014608  00000+0  40114-3 0  9996
2 69622  51.8805 299.6703 0009898 268.8839  91.1014 15.37429198  4388
KUIPER-00560            
1 69623U 26140AH  26188.84832120 -.00014800  00000+0 -36945-3 0  9996
2 69623  51.8777 298.6961 0008906 259.4509 100.5475 15.38811816  4414
KUIPER-00561            
1 69624U 26140AJ  26188.65570965  .00013969  00000+0  37026-3 0  9996
2 69624  51.8824 299.6620 0008010 277.0022  83.0054 15.38583091  4388
KUIPER-00564            
1 69625U 26140AK  26189.08336806  .00020195  00000+0  55469-3 0  9999
2 69625  51.8812 297.5624 0009411 270.7489 311.4819 15.37175165  3698
